{"type": "FeatureCollection", "features": [ {"type": "Feature", "properties": {"norad_id": 33655, "name": "FENGYUN 1C DEB", "group": "fengyun-1c-debris", "lat": -70.00027953476581, "lon": 72.78074264737783, "alt_km": 578.0236144933706, "timestamp": "2025-12-08T19:31:49.095021+00:00", "meta": {"OBJECT_NAME": "FENGYUN 1C DEB", "OBJECT_ID": "1999-025DEQ", "EPOCH": "2025-12-05T03:38:43.803168", "MEAN_MOTION": 14.97269099, "ECCENTRICITY": 0.00479874, "INCLINATION": 98.8049, "RA_OF_ASC_NODE": 43.4524, "ARG_OF_PERICENTER": 24.086, "MEAN_ANOMALY": 336.2588, "EPHEMERIS_TYPE": 0, "CLASSIFICATION_TYPE": "U", "NORAD_CAT_ID": 33655, "ELEMENT_SET_NO": 999, "REV_AT_EPOCH": 96444, "BSTAR": 0.0036430798, "MEAN_MOTION_DOT": 0.00043384, "MEAN_MOTION_DDOT": 0}, "tle": {"line1": "1 33655U 99025DEQ 25339.15189587  .00043384  00000+0  36431-2 0  9993", "line2": "2 33655  98.8049  43.4524 0047987  24.0860 336.2588 14.97269099964447"}}, "geometry": {"type": "Point", "coordinates": [72.78074264737783, -70.00027953476581]}}, {"type": "Feature", "properties": {"norad_id": 33656, "name": "FENGYUN 1C DEB", "group": "fengyun-1c-debris", "lat": 22.108442227738433, "lon": -27.535755956566565, "alt_km": 754.5361816836003, "timestamp": "2025-12-08T19:31:49.095030+00:00", "meta": {"OBJECT_NAME": "FENGYUN 1C DEB", "OBJECT_ID": "1999-025DER", "EPOCH": "2025-12-08T05:55:27.236928", "MEAN_MOTION": 14.2271766, "ECCENTRICITY": 0.00907002, "INCLINATION": 98.5784, "RA_OF_ASC_NODE": 335.4277, "ARG_OF_PERICENTER": 44.3559, "MEAN_ANOMALY": 316.4839, "EPHEMERIS_TYPE": 0, "CLASSIFICATION_TYPE": "U", "NORAD_CAT_ID": 33656, "ELEMENT_SET_NO": 999, "REV_AT_EPOCH": 62645, "BSTAR": 0.00076070881, "MEAN_MOTION_DOT": 1.735e-05, "MEAN_MOTION_DDOT": 0}, "tle": {"line1": "1 33656U 99025DER 25342.24684302  .00001735  00000+0  76071-3 0  9992", "line2": "2 33656  98.5784 335.4277 0090700  44.3559 316.4839 14.22717660626456"}}, "geometry": {"type": "Point", "coordinates": [-27.535755956566565, 22.108442227738433]}}, {"type": "Feature", "properties": {"norad_id": 33658, "name": "FENGYUN 1C DEB", "group": "fengyun-1c-debris", "lat": -45.92380660121808, "lon": -53.944907276688234, "alt_km": 860.8141832428346, "timestamp": "2025-12-08T19:31:49.095039+00:00", "meta": {"OBJECT_NAME": "FENGYUN 1C DEB", "OBJECT_ID": "1999-025DET", "EPOCH": "2025-12-07T03:38:53.141280", "MEAN_MOTION": 13.62306043, "ECCENTRICITY": 0.02838881, "INCLINATION": 99.5638, "RA_OF_ASC_NODE": 134.4508, "ARG_OF_PERICENTER": 195.3989, "MEAN_ANOMALY": 163.8379, "EPHEMERIS_TYPE": 0, "CLASSIFICATION_TYPE": "U", "NORAD_CAT_ID": 33658, "ELEMENT_SET_NO": 999, "REV_AT_EPOCH": 58063, "BSTAR": 0.0056947799, "MEAN_MOTION_DOT": 5.737e-05, "MEAN_MOTION_DDOT": 0}, "tle": {"line1": "1 33658U 99025DET 25341.15200395  .00005737  00000+0  56948-2 0  9995", "line2": "2 33658  99.5638 134.4508 0283888 195.3989 163.8379 13.62306043580630"}}, "geometry": {"type": "Point", "coordinates": [-53.944907276688234, -45.92380660121808]}}, {"type": "Feature", "properties": {"norad_id": 33660, "name": "FENGYUN 1C DEB", "group": "fengyun-1c-debris", "lat": 58.06129939500197, "lon": 88.40573778346922, "alt_km": 974.3574730234586, "timestamp": "2025-12-08T19:31:49.095048+00:00", "meta": {"OBJECT_NAME": "FENGYUN 1C DEB", "OBJECT_ID": "1999-025DEV", "EPOCH": "2025-12-08T05:53:24.350208", "MEAN_MOTION": 13.91762061, "ECCENTRICITY": 0.01098597, "INCLINATION": 98.6562, "RA_OF_ASC_NODE": 253.7308, "ARG_OF_PERICENTER": 258.6407, "MEAN_ANOMALY": 257.0178, "EPHEMERIS_TYPE": 0, "CLASSIFICATION_TYPE": "U", "NORAD_CAT_ID": 33660, "ELEMENT_SET_NO": 999, "REV_AT_EPOCH": 91001, "BSTAR": 0.0009008399, "MEAN_MOTION_DOT": 1.162e-05, "MEAN_MOTION_DDOT": 0}, "tle": {"line1": "1 33660U 99025DEV 25342.24542072  .00001162  00000+0  90084-3 0  9998", "line2": "2 33660  98.6562 253.7308 0109859 258.6407 257.0178 13.91762061910015"}}, "geometry": {"type": "Point", "coordinates": [88.40573778346922, 58.06129939500197]}}, {"type": "Feature", "properties": {"norad_id": 33663, "name": "FENGYUN 1C DEB", "group": "fengyun-1c-debris", "lat": -66.63182033201893, "lon": -5.064000935731737, "alt_km": 697.4777769900884, "timestamp": "2025-12-08T19:31:49.095057+00:00", "meta": {"OBJECT_NAME": "FENGYUN 1C DEB", "OBJECT_ID": "1999-025DEY", "EPOCH": "2025-12-03T05:05:31.419744", "MEAN_MOTION": 14.61054658, "ECCENTRICITY": 0.0083557, "INCLINATION": 98.8831, "RA_OF_ASC_NODE": 327.7043, "ARG_OF_PERICENTER": 41.7149, "MEAN_ANOMALY": 319.0381, "EPHEMERIS_TYPE": 0, "CLASSIFICATION_TYPE": "U", "NORAD_CAT_ID": 33663, "ELEMENT_SET_NO": 999, "REV_AT_EPOCH": 64063, "BSTAR": 0.010019311, "MEAN_MOTION_DOT": 0.00052012, "MEAN_MOTION_DDOT": 0}, "tle": {"line1": "1 33663U 99025DEY 25337.21216921  .00052012  00000+0  10019-1 0  9991", "line2": "2 33663  98.8831 327.7043 0083557  41.7149 319.0381 14.61054658640634"}}, "geometry": {"type": "Point", "coordinates": [-5.064000935731737, -66.63182033201893]}}, {"type": "Feature", "properties": {"norad_id": 33664, "name": "FENGYUN 1C DEB", "group": "fengyun-1c-debris", "lat": -81.01270162354757, "lon": -152.7349371361632, "alt_km": 976.0965466680709, "timestamp": "2025-12-08T19:31:49.095066+00:00", "meta": {"OBJECT_NAME": "FENGYUN 1C DEB", "OBJECT_ID": "1999-025DEZ", "EPOCH": "2025-12-02T03:10:30.773568", "MEAN_MOTION": 14.03976749, "ECCENTRICITY": 0.01640632, "INCLINATION": 98.7018, "RA_OF_ASC_NODE": 125.3204, "ARG_OF_PERICENTER": 69.7897, "MEAN_ANOMALY": 292.0828, "EPHEMERIS_TYPE": 0, "CLASSIFICATION_TYPE": "U", "NORAD_CAT_ID": 33664, "ELEMENT_SET_NO": 999, "REV_AT_EPOCH": 90590, "BSTAR": 0.00053085125, "MEAN_MOTION_DOT": 9.05e-06, "MEAN_MOTION_DDOT": 0}, "tle": {"line1": "1 33664U 99025DEZ 25336.13230062  .00000905  00000+0  53085-3 0  9990", "line2": "2 33664  98.7018 125.3204 0164063  69.7897 292.0828 14.03976749905904"}}, "geometry": {"type": "Point", "coordinates": [-152.7349371361632, -81.01270162354757]}}, {"type": "Feature", "properties": {"norad_id": 33665, "name": "FENGYUN 1C DEB", "group": "fengyun-1c-debris", "lat": 25.689154865948073, "lon": 95.96176922812292, "alt_km": 791.6798922178941, "timestamp": "2025-12-08T19:31:49.095075+00:00", "meta": {"OBJECT_NAME": "FENGYUN 1C DEB", "OBJECT_ID": "1999-025DFA", "EPOCH": "2025-12-08T04:00:33.987456", "MEAN_MOTION": 14.0360448, "ECCENTRICITY": 0.0455578, "INCLINATION": 99.0245, "RA_OF_ASC_NODE": 99.7019, "ARG_OF_PERICENTER": 104.9125, "MEAN_ANOMALY": 260.2939, "EPHEMERIS_TYPE": 0, "CLASSIFICATION_TYPE": "U", "NORAD_CAT_ID": 33665, "ELEMENT_SET_NO": 999, "REV_AT_EPOCH": 92527, "BSTAR": 0.0010013652, "MEAN_MOTION_DOT": 3.949e-05, "MEAN_MOTION_DDOT": 0}, "tle": {"line1": "1 33665U 99025DFA 25342.16706004  .00003949  00000+0  10014-2 0  9990", "line2": "2 33665  99.0245  99.7019 0455578 104.9125 260.2939 14.03604480925271"}}, "geometry": {"type": "Point", "coordinates": [95.96176922812292, 25.689154865948073]}}, {"type": "Feature", "properties": {"norad_id": 33673, "name": "FENGYUN 1C DEB", "group": "fengyun-1c-debris", "lat": 77.417893347106, "lon": -102.89040898919474, "alt_km": 958.3960689198129, "timestamp": "2025-12-08T19:31:49.095084+00:00", "meta": {"OBJECT_NAME": "FENGYUN 1C DEB", "OBJECT_ID": "1999-025DFJ", "EPOCH": "2025-12-07T14:32:49.071264", "MEAN_MOTION": 13.95529173, "ECCENTRICITY": 0.01074586, "INCLINATION": 99.345, "RA_OF_ASC_NODE": 28.3453, "ARG_OF_PERICENTER": 238.21, "MEAN_ANOMALY": 277.2882, "EPHEMERIS_TYPE": 0, "CLASSIFICATION_TYPE": "U", "NORAD_CAT_ID": 33673, "ELEMENT_SET_NO": 999, "REV_AT_EPOCH": 89830, "BSTAR": 0.00098940102, "MEAN_MOTION_DOT": 1.364e-05, "MEAN_MOTION_DDOT": 0}, "tle": {"line1": "1 33673U 99025DFJ 25341.60612351  .00001364  00000+0  98940-3 0  9992", "line2": "2 33673  99.3450  28.3453 0107458 238.2100 277.2882 13.95529173898309"}}, "geometry": {"type": "Point", "coordinates": [-102.89040898919474, 77.417893347106]}}, {"type": "Feature", "properties": {"norad_id": 33674, "name": "FENGYUN 1C DEB", "group": "fengyun-1c-debris", "lat": -59.80292231974342, "lon": -161.96251394595615, "alt_km": 829.8854072837703, "timestamp": "2025-12-08T19:31:49.095093+00:00", "meta": {"OBJECT_NAME": "FENGYUN 1C DEB", "OBJECT_ID": "1999-025DFK", "EPOCH": "2025-12-02T01:53:41.579808", "MEAN_MOTION": 13.76813989, "ECCENTRICITY": 0.02100329, "INCLINATION": 98.6065, "RA_OF_ASC_NODE": 27.0218, "ARG_OF_PERICENTER": 268.727, "MEAN_ANOMALY": 88.9815, "EPHEMERIS_TYPE": 0, "CLASSIFICATION_TYPE": "U", "NORAD_CAT_ID": 33674, "ELEMENT_SET_NO": 999, "REV_AT_EPOCH": 88218, "BSTAR": 0.0021724399, "MEAN_MOTION_DOT": 2.475e-05, "MEAN_MOTION_DDOT": 0}, "tle": {"line1": "1 33674U 99025DFK 25336.07895347  .00002475  00000+0  21724-2 0  9995", "line2": "2 33674  98.6065  27.0218 0210032 268.7270  88.9815 13.76813989882180"}}, "geometry": {"type": "Point", "coordinates": [-161.96251394595615, -59.80292231974342]}}, {"type": "Feature", "properties": {"norad_id": 33676, "name": "FENGYUN 1C DEB", "group": "fengyun-1c-debris", "lat": 74.47231629374777, "lon": -137.69563947193353, "alt_km": 629.1987278418228, "timestamp": "2025-12-08T19:31:49.095102+00:00", "meta": {"OBJECT_NAME": "FENGYUN 1C DEB", "OBJECT_ID": "1999-025DFM", "EPOCH": "2025-12-08T00:40:06.077568", "MEAN_MOTION": 14.35554956, "ECCENTRICITY": 0.02051706, "INCLINATION": 99.0963, "RA_OF_ASC_NODE": 6.2622, "ARG_OF_PERICENTER": 83.3404, "MEAN_ANOMALY": 279.1085, "EPHEMERIS_TYPE": 0, "CLASSIFICATION_TYPE": "U", "NORAD_CAT_ID": 33676, "ELEMENT_SET_NO": 999, "REV_AT_EPOCH": 65243, "BSTAR": 0.00019771419, "MEAN_MOTION_DOT": 6.68e-06, "MEAN_MOTION_DDOT": 0}, "tle": {"line1": "1 33676U 99025DFM 25342.02784812  .00000668  00000+0  19771-3 0  9995", "line2": "2 33676  99.0963   6.2622 0205170  83.3404 279.1085 14.35554956652437"}}, "geometry": {"type": "Point", "coordinates": [-137.69563947193353, 74.47231629374777]}}]}